ONEWEB-0034             
1 45454U 20020AG  26052.91736285 -.00000466  00000+0 -13506-2 0  9996
2 45454  87.8838  43.9819 0001850  86.9167 273.2173 13.11414292287483
ONEWEB-0060             
1 45455U 20020AH  26053.04115409  .00000466  00000+0  12788-2 0  9990
2 45455  87.8831  43.9686 0000820 100.1714 259.9506 13.11414552287459
ONEWEB-0086             
1 45456U 20020AJ  26053.01995162  .00000094  00000+0  22898-3 0  9991
2 45456  87.8843  43.9594 0001497 109.7324 250.3966 13.11419205287516
ONEWEB-0088             
1 45457U 20020AK  26052.92160751 -.00000655  00000+0 -18839-2 0  9993
2 45457  87.8851  43.9423 0001815  76.5690 283.5641 13.11416009287436
ONEWEB-0102             
1 47258U 20100A   26053.16832020  .00000257  00000+0  67949-3 0  9998
2 47258  87.8973  13.5093 0001716  88.0667 272.0658 13.12444808249641
ONEWEB-0109             
1 47259U 20100B   26052.79559967  .00000395  00000+0  10619-2 0  9997
2 47259  87.8983  13.5562 0001916  84.7822 275.3525 13.12444086249425
ONEWEB-0110             
1 47260U 20100C   26053.12766223 -.00000052  00000+0 -18041-3 0  9992
2 47260  87.8985  13.4751 0001624  88.4176 271.7138 13.12442323249632
ONEWEB-0111             
1 47261U 20100D   26053.15814770 -.00000112  00000+0 -34792-3 0  9995
2 47261  87.8977  13.4873 0001726  79.1814 280.9509 13.12444073249478
ONEWEB-0114             
1 47262U 20100E   26053.11241051  .00000406  00000+0  10921-2 0  9999
2 47262  87.8983  13.4917 0002138  82.4000 277.7371 13.12444033249429
ONEWEB-0117             
1 47263U 20100F   26052.95146185  .00000436  00000+0  11764-2 0  9992
2 47263  87.8984  13.5190 0001824  83.8201 276.3135 13.12444289249419
ONEWEB-0118             
1 47264U 20100G   26053.13780710 -.00000320  00000+0 -92576-3 0  9997
2 47264  87.8985  13.4838 0002137  76.5856 283.5511 13.12440729249639
ONEWEB-0119             
1 47265U 20100H   26052.93452419  .00000076  00000+0  17693-3 0  9990
2 47265  87.8973  13.5509 0001854  81.5889 278.5449 13.12444206249582
ONEWEB-0120             
1 47266U 20100J   26053.18708576  .00000412  00000+0  11111-2 0  9999
2 47266  87.8973  13.5022 0001928  83.1534 276.9814 13.12443787249648
ONEWEB-0121             
1 47267U 20100K   26052.87014274  .00000411  00000+0  11057-2 0  9998
2 47267  87.8981  13.5399 0001637  85.0878 275.0437 13.12444239249514
ONEWEB-0122             
1 47268U 20100L   26053.16916232  .00000301  00000+0  80051-3 0  9996
2 47268  87.8981  13.4824 0001859  85.4707 274.6634 13.12444942249467
ONEWEB-0123             
1 47269U 20100M   26052.93621626  .00000111  00000+0  27252-3 0  9994
2 47269  87.8975  13.5493 0001901  78.5691 281.5651 13.12444385249576
ONEWEB-0124             
1 47270U 20100N   26053.15475152 -.00000119  00000+0 -36727-3 0  9999
2 47270  87.8970  13.5111 0001751  78.9305 281.2020 13.12444098249487
