[{"OBJECT_NAME":"ONEWEB-0034","OBJECT_ID":"2020-020AG","EPOCH":"2026-02-21T22:01:00.150240","MEAN_MOTION":13.11414292,"ECCENTRICITY":0.000185,"INCLINATION":87.8838,"RA_OF_ASC_NODE":43.9819,"ARG_OF_PERICENTER":86.9167,"MEAN_ANOMALY":273.2173,"EPHEMERIS_TYPE":0,"CLASSIFICATION_TYPE":"U","NORAD_CAT_ID":45454,"ELEMENT_SET_NO":999,"REV_AT_EPOCH":28748,"BSTAR":-0.0013506,"MEAN_MOTION_DOT":-4.66e-6,"MEAN_MOTION_DDOT":0},{"OBJECT_NAME":"ONEWEB-0060","OBJECT_ID":"2020-020AH","EPOCH":"2026-02-22T00:59:15.713376","MEAN_MOTION":13.11414552,"ECCENTRICITY":8.2e-5,"INCLINATION":87.8831,"RA_OF_ASC_NODE":43.9686,"ARG_OF_PERICENTER":100.1714,"MEAN_ANOMALY":259.9506,"EPHEMERIS_TYPE":0,"CLASSIFICATION_TYPE":"U","NORAD_CAT_ID":45455,"ELEMENT_SET_NO":999,"REV_AT_EPOCH":28745,"BSTAR":0.0012788,"MEAN_MOTION_DOT":4.66e-6,"MEAN_MOTION_DDOT":0},{"OBJECT_NAME":"ONEWEB-0086","OBJECT_ID":"2020-020AJ","EPOCH":"2026-02-22T00:28:43.819968","MEAN_MOTION":13.11419205,"ECCENTRICITY":0.0001497,"INCLINATION":87.8843,"RA_OF_ASC_NODE":43.9594,"ARG_OF_PERICENTER":109.7324,"MEAN_ANOMALY":250.3966,"EPHEMERIS_TYPE":0,"CLASSIFICATION_TYPE":"U","NORAD_CAT_ID":45456,"ELEMENT_SET_NO":999,"REV_AT_EPOCH":28751,"BSTAR":0.00022898,"MEAN_MOTION_DOT":9.4e-7,"MEAN_MOTION_DDOT":0},{"OBJECT_NAME":"ONEWEB-0088","OBJECT_ID":"2020-020AK","EPOCH":"2026-02-21T22:07:06.888864","MEAN_MOTION":13.11416009,"ECCENTRICITY":0.0001815,"INCLINATION":87.8851,"RA_OF_ASC_NODE":43.9423,"ARG_OF_PERICENTER":76.569,"MEAN_ANOMALY":283.5641,"EPHEMERIS_TYPE":0,"CLASSIFICATION_TYPE":"U","NORAD_CAT_ID":45457,"ELEMENT_SET_NO":999,"REV_AT_EPOCH":28743,"BSTAR":-0.0018839,"MEAN_MOTION_DOT":-6.55e-6,"MEAN_MOTION_DDOT":0},{"OBJECT_NAME":"ONEWEB-0102","OBJECT_ID":"2020-100A","EPOCH":"2026-02-22T04:02:22.865280","MEAN_MOTION":13.12444808,"ECCENTRICITY":0.0001716,"INCLINATION":87.8973,"RA_OF_ASC_NODE":13.5093,"ARG_OF_PERICENTER":88.0667,"MEAN_ANOMALY":272.0658,"EPHEMERIS_TYPE":0,"CLASSIFICATION_TYPE":"U","NORAD_CAT_ID":47258,"ELEMENT_SET_NO":999,"REV_AT_EPOCH":24964,"BSTAR":0.00067949,"MEAN_MOTION_DOT":2.57e-6,"MEAN_MOTION_DDOT":0},{"OBJECT_NAME":"ONEWEB-0109","OBJECT_ID":"2020-100B","EPOCH":"2026-02-21T19:05:39.811488","MEAN_MOTION":13.12444086,"ECCENTRICITY":0.0001916,"INCLINATION":87.8983,"RA_OF_ASC_NODE":13.5562,"ARG_OF_PERICENTER":84.7822,"MEAN_ANOMALY":275.3525,"EPHEMERIS_TYPE":0,"CLASSIFICATION_TYPE":"U","NORAD_CAT_ID":47259,"ELEMENT_SET_NO":999,"REV_AT_EPOCH":24942,"BSTAR":0.0010619,"MEAN_MOTION_DOT":3.95e-6,"MEAN_MOTION_DDOT":0},{"OBJECT_NAME":"ONEWEB-0110","OBJECT_ID":"2020-100C","EPOCH":"2026-02-22T03:03:50.016672","MEAN_MOTION":13.12442323,"ECCENTRICITY":0.0001624,"INCLINATION":87.8985,"RA_OF_ASC_NODE":13.4751,"ARG_OF_PERICENTER":88.4176,"MEAN_ANOMALY":271.7138,"EPHEMERIS_TYPE":0,"CLASSIFICATION_TYPE":"U","NORAD_CAT_ID":47260,"ELEMENT_SET_NO":999,"REV_AT_EPOCH":24963,"BSTAR":-0.00018041,"MEAN_MOTION_DOT":-5.2e-7,"MEAN_MOTION_DDOT":0},{"OBJECT_NAME":"ONEWEB-0111","OBJECT_ID":"2020-100D","EPOCH":"2026-02-22T03:47:43.961280","MEAN_MOTION":13.12444073,"ECCENTRICITY":0.0001726,"INCLINATION":87.8977,"RA_OF_ASC_NODE":13.4873,"ARG_OF_PERICENTER":79.1814,"MEAN_ANOMALY":280.9509,"EPHEMERIS_TYPE":0,"CLASSIFICATION_TYPE":"U","NORAD_CAT_ID":47261,"ELEMENT_SET_NO":999,"REV_AT_EPOCH":24947,"BSTAR":-0.00034792,"MEAN_MOTION_DOT":-1.12e-6,"MEAN_MOTION_DDOT":0},{"OBJECT_NAME":"ONEWEB-0114","OBJECT_ID":"2020-100E","EPOCH":"2026-02-22T02:41:52.268064","MEAN_MOTION":13.12444033,"ECCENTRICITY":0.0002138,"INCLINATION":87.8983,"RA_OF_ASC_NODE":13.4917,"ARG_OF_PERICENTER":82.4,"MEAN_ANOMALY":277.7371,"EPHEMERIS_TYPE":0,"CLASSIFICATION_TYPE":"U","NORAD_CAT_ID":47262,"ELEMENT_SET_NO":999,"REV_AT_EPOCH":24942,"BSTAR":0.0010921,"MEAN_MOTION_DOT":4.06e-6,"MEAN_MOTION_DDOT":0},{"OBJECT_NAME":"ONEWEB-0117","OBJECT_ID":"2020-100F","EPOCH":"2026-02-21T22:50:06.303840","MEAN_MOTION":13.12444289,"ECCENTRICITY":0.0001824,"INCLINATION":87.8984,"RA_OF_ASC_NODE":13.519,"ARG_OF_PERICENTER":83.8201,"MEAN_ANOMALY":276.3135,"EPHEMERIS_TYPE":0,"CLASSIFICATION_TYPE":"U","NORAD_CAT_ID":47263,"ELEMENT_SET_NO":999,"REV_AT_EPOCH":24941,"BSTAR":0.0011764,"MEAN_MOTION_DOT":4.36e-6,"MEAN_MOTION_DDOT":0},{"OBJECT_NAME":"ONEWEB-0118","OBJECT_ID":"2020-100G","EPOCH":"2026-02-22T03:18:26.533440","MEAN_MOTION":13.12440729,"ECCENTRICITY":0.0002137,"INCLINATION":87.8985,"RA_OF_ASC_NODE":13.4838,"ARG_OF_PERICENTER":76.5856,"MEAN_ANOMALY":283.5511,"EPHEMERIS_TYPE":0,"CLASSIFICATION_TYPE":"U","NORAD_CAT_ID":47264,"ELEMENT_SET_NO":999,"REV_AT_EPOCH":24963,"BSTAR":-0.00092576,"MEAN_MOTION_DOT":-3.2e-6,"MEAN_MOTION_DDOT":0},{"OBJECT_NAME":"ONEWEB-0119","OBJECT_ID":"2020-100H","EPOCH":"2026-02-21T22:25:42.890016","MEAN_MOTION":13.12444206,"ECCENTRICITY":0.0001854,"INCLINATION":87.8973,"RA_OF_ASC_NODE":13.5509,"ARG_OF_PERICENTER":81.5889,"MEAN_ANOMALY":278.5449,"EPHEMERIS_TYPE":0,"CLASSIFICATION_TYPE":"U","NORAD_CAT_ID":47265,"ELEMENT_SET_NO":999,"REV_AT_EPOCH":24958,"BSTAR":0.00017693,"MEAN_MOTION_DOT":7.6e-7,"MEAN_MOTION_DDOT":0},{"OBJECT_NAME":"ONEWEB-0120","OBJECT_ID":"2020-100J","EPOCH":"2026-02-22T04:29:24.209664","MEAN_MOTION":13.12443787,"ECCENTRICITY":0.0001928,"INCLINATION":87.8973,"RA_OF_ASC_NODE":13.5022,"ARG_OF_PERICENTER":83.1534,"MEAN_ANOMALY":276.9814,"EPHEMERIS_TYPE":0,"CLASSIFICATION_TYPE":"U","NORAD_CAT_ID":47266,"ELEMENT_SET_NO":999,"REV_AT_EPOCH":24964,"BSTAR":0.0011111,"MEAN_MOTION_DOT":4.12e-6,"MEAN_MOTION_DDOT":0},{"OBJECT_NAME":"ONEWEB-0121","OBJECT_ID":"2020-100K","EPOCH":"2026-02-21T20:53:00.332736","MEAN_MOTION":13.12444239,"ECCENTRICITY":0.0001637,"INCLINATION":87.8981,"RA_OF_ASC_NODE":13.5399,"ARG_OF_PERICENTER":85.0878,"MEAN_ANOMALY":275.0437,"EPHEMERIS_TYPE":0,"CLASSIFICATION_TYPE":"U","NORAD_CAT_ID":47267,"ELEMENT_SET_NO":999,"REV_AT_EPOCH":24951,"BSTAR":0.0011057,"MEAN_MOTION_DOT":4.11e-6,"MEAN_MOTION_DDOT":0},{"OBJECT_NAME":"ONEWEB-0122","OBJECT_ID":"2020-100L","EPOCH":"2026-02-22T04:03:35.624448","MEAN_MOTION":13.12444942,"ECCENTRICITY":0.0001859,"INCLINATION":87.8981,"RA_OF_ASC_NODE":13.4824,"ARG_OF_PERICENTER":85.4707,"MEAN_ANOMALY":274.6634,"EPHEMERIS_TYPE":0,"CLASSIFICATION_TYPE":"U","NORAD_CAT_ID":47268,"ELEMENT_SET_NO":999,"REV_AT_EPOCH":24946,"BSTAR":0.00080051,"MEAN_MOTION_DOT":3.01e-6,"MEAN_MOTION_DDOT":0},{"OBJECT_NAME":"ONEWEB-0123","OBJECT_ID":"2020-100M","EPOCH":"2026-02-21T22:28:09.084864","MEAN_MOTION":13.12444385,"ECCENTRICITY":0.0001901,"INCLINATION":87.8975,"RA_OF_ASC_NODE":13.5493,"ARG_OF_PERICENTER":78.5691,"MEAN_ANOMALY":281.5651,"EPHEMERIS_TYPE":0,"CLASSIFICATION_TYPE":"U","NORAD_CAT_ID":47269,"ELEMENT_SET_NO":999,"REV_AT_EPOCH":24957,"BSTAR":0.00027252,"MEAN_MOTION_DOT":1.11e-6,"MEAN_MOTION_DDOT":0},{"OBJECT_NAME":"ONEWEB-0124","OBJECT_ID":"2020-100N","EPOCH":"2026-02-22T03:42:50.531328","MEAN_MOTION":13.12444098,"ECCENTRICITY":0.0001751,"INCLINATION":87.897,"RA_OF_ASC_NODE":13.5111,"ARG_OF_PERICENTER":78.9305,"MEAN_ANOMALY":281.202,"EPHEMERIS_TYPE":0,"CLASSIFICATION_TYPE":"U","NORAD_CAT_ID":47270,"ELEMENT_SET_NO":999,"REV_AT_EPOCH":24948,"BSTAR":-0.00036727,"MEAN_MOTION_DOT":-1.19e-6,"MEAN_MOTION_DDOT":0}]
